IRIDIUM 921             
1 24873U 97034E   24201.66865132  .00038613  00000+0  91157-3 0  9999
2 24873  86.3798 272.0044 0006022 123.3948 236.7884 15.41687529480183
IRIDIUM 26              
1 24903U 97043A   24201.86078945  .00000791  00000+0  26351-3 0  9993
2 24903  86.3937 250.0438 0002469  95.1287 265.0192 14.36442349409021
IRIDIUM 22              
1 24907U 97043E   24201.87203334  .00000726  00000+0  24652-3 0  9990
2 24907  86.3940 253.3027 0002225  92.9153 267.2298 14.35329137409081
IRIDIUM 33              
1 24946U 97051C   24201.92224481  .00000600  00000+0  20633-3 0  9990
2 24946  86.3864 282.4295 0010085  85.2920 274.9427 14.34422780405104
IRIDIUM 28              
1 24948U 97051E   24201.70761278  .00000800  00000+0  26481-3 0  9997
2 24948  86.3954 280.9741 0002648  94.5800 265.5699 14.36735627406096
